"{\n    \"CCSDS_OMM_VERS\": \"2.0\",\n    \"COMMENT\": \"GENERATED VIA SPACE-TRACK.ORG API\",\n    \"CREATION_DATE\": \"2025-08-31T02:26:50\",\n    \"ORIGINATOR\": \"18 SPCS\",\n    \"OBJECT_NAME\": \"BEIDOU 3M5\",\n    \"OBJECT_ID\": \"2018-018A\",\n    \"CENTER_NAME\": \"EARTH\",\n    \"REF_FRAME\": \"TEME\",\n    \"TIME_SYSTEM\": \"UTC\",\n    \"MEAN_ELEMENT_THEORY\": \"SGP4\",\n    \"EPOCH\": \"2025-08-30T04:07:18.323040\",\n    \"MEAN_MOTION\": \"1.8623146687\",\n    \"ECCENTRICITY\": \"0.00059968353\",\n    \"INCLINATION\": \"56.392348\",\n    \"RA_OF_ASC_NODE\": \"72.76193\",\n    \"ARG_OF_PERICENTER\": \"34.661137\",\n    \"MEAN_ANOMALY\": \"325.43551\",\n    \"EPHEMERIS_TYPE\": \"0\",\n    \"CLASSIFICATION_TYPE\": \"U\",\n    \"NORAD_CAT_ID\": \"43207\",\n    \"ELEMENT_SET_NO\": \"999\",\n    \"REV_AT_EPOCH\": \"5132\",\n    \"BSTAR\": \"0\",\n    \"MEAN_MOTION_DOT\": \"-0.000000235215\",\n    \"MEAN_MOTION_DDOT\": \"0\",\n    \"TLE_LINE0\": \"0 BEIDOU 3M5\",\n    \"TLE_LINE1\": \"1 43207U 18018A   25242.17173985 -.00000024  00000-0  00000-0 0  9997\",\n    \"TLE_LINE2\": \"2 43207  56.3923  72.7619 0005997  34.6611 325.4355  1.86231467 51325\",\n    \"SEMIMAJOR_AXIS\": \"27906.142\",\n    \"PERIOD\": \"773.231\",\n    \"APOAPSIS\": \"21544.742\",\n    \"PERIAPSIS\": \"21511.272\",\n    \"OBJECT_TYPE\": \"PAYLOAD\",\n    \"DECAYED\": \"0\"\n}"